URSA MAIOR              
1 42776U 17036M   18036.35083641  .00000725  00000-0  36175-4 0  9991
2 42776  97.4200  97.9559 0014772 160.1786 200.0027 15.20563397 34463
COMPASS 2               
1 42777U 17036N   18035.82020328  .00001317  00000-0  61943-4 0  9995
2 42777  97.4215  97.6284 0013634 165.3723 194.7910 15.21261823 34387
LEMUR-2-LYNSEY-SYMO     
1 42779U 17036Q   18035.84855383  .00001492  00000-0  69173-4 0  9993
2 42779  97.4211  97.7211 0013031 171.1749 188.9718 15.21567974 34387
LEMUR-2-LISASAURUS      
1 42780U 17036R   18035.79141107  .00001234  00000-0  57975-4 0  9992
2 42780  97.4204  97.6332 0012892 171.2939 188.8523 15.21427917 34385
LEMUR-2-SAM-AMELIA      
1 42781U 17036S   18036.17136660  .00001391  00000-0  64612-4 0  9994
2 42781  97.4207  98.0423 0012886 170.4110 189.7375 15.21602746 34436
LEMUR-2-MCPEAKE         
1 42782U 17036T   18036.16675260  .00001306  00000-0  60797-4 0  9994
2 42782  97.4209  98.0548 0012769 169.9233 190.2261 15.21628586 34437
DIAMOND RED             
1 42783U 17036U   18036.46080755  .00000791  00000-0  38555-4 0  9991
2 42783  97.4199  98.2591 0012811 170.8551 189.2920 15.21170725 34480
PEGASUS                 
1 42784U 17036V   18035.72555491  .00000964  00000-0  46110-4 0  9992
2 42784  97.4201  97.5654 0012680 173.5150 186.6252 15.21317311 34377
DIAMOND GREEN           
1 42785U 17036W   18036.45996645  .00000839  00000-0  40723-4 0  9999
2 42785  97.4201  98.2671 0012688 171.3687 188.7769 15.21170423 34472
DIAMOND BLUE            
1 42786U 17036X   18035.93274506  .00000819  00000-0  39817-4 0  9997
2 42786  97.4201  97.7485 0012461 173.3343 186.8060 15.21164533 34478
NUDTSAT                 
1 42787U 17036Y   18036.47626961  .00001384  00000-0  64053-4 0  9992
2 42787  97.4204  98.3977 0012356 170.8524 189.2940 15.21743063 34331
SUCHAI                  
1 42788U 17036Z   18036.16393432  .00001111  00000-0  52365-4 0  9994
2 42788  97.4201  98.0467 0012360 171.8977 188.2461 15.21527962 34513
SKCUBE                  
1 42789U 17036AA  18035.83245020  .00001024  00000-0  48495-4 0  9999
2 42789  97.4200  97.7228 0012152 172.8348 187.3063 15.21516512 34388
VZLUSAT-1               
1 42790U 17036AB  18035.87605265  .00001336  00000-0  61910-4 0  9999
2 42790  97.4201  97.8140 0011844 172.9695 187.1709 15.21772113 34395
ROBUSTA-1B              
1 42792U 17036AD  18035.74739964  .00001059  00000-0  49870-4 0  9994
2 42792  97.4198  97.6762 0011685 173.9788 186.1590 15.21652077 34389
CICERO 6                
1 42793U 17036AE  18035.73331016  .00000636  00000-0  31235-4 0  9996
2 42793  97.4194  97.6881 0010762 174.2709 185.8652 15.21619914 34456
D-SAT                   
1 42794U 17036AF  18036.15559260  .00000246  00000-0  27061-4 0  9996
2 42794  97.6115  95.6703 0127264   2.2189 357.9567 14.90774888 34051
TOKI                    
1 42820U 98067MU  18035.91778100  .00013153  00000-0  15087-3 0  9993
2 42820  51.6372 311.1642 0003099  46.8288 313.2965 15.62438652 33161
GHANASAT-1              
1 42821U 98067MV  18035.93697815  .00012328  00000-0  14329-3 0  9990
2 42821  51.6372 311.2928 0003225  49.2730 310.8543 15.62165461 33148
MAZAALAI (NUMSAT-1)     
1 42822U 98067MW  18035.93277187  .00012815  00000-0  14811-3 0  9994
2 42822  51.6372 311.2667 0003199  51.7448 308.3834 15.62269050 33147
BRAC ONNESHA            
1 42823U 98067MX  18035.93409470  .00012849  00000-0  14829-3 0  9993
2 42823  51.6378 311.2848 0006171  61.3987 298.7627 15.62294273 33140
NIGERIAEDUSAT-1         
1 42824U 98067MY  18036.20113134  .00013932  00000-0  16095-3 0  9995
2 42824  51.6382 310.0761 0006083  63.0062 297.1552 15.62184365 33153
LEMUR-2-GREENBERG       
1 42837U 17042N   18035.74142479  .00000586  00000-0  64223-4 0  9993
2 42837  97.6077 303.1476 0011807 280.8244  79.1646 14.91314431 30615
LEMUR-2-ANDIS           
1 42838U 17042P   18035.73854645  .00000556  00000-0  61125-4 0  9993
2 42838  97.6076 303.1506 0011893 280.7484  79.2396 14.91337250 30616
LEMUR-2-MONSON          
1 42839U 17042Q   18035.73034776  .00000272  00000-0  32703-4 0  9994
2 42839  97.6076 303.1598 0011584 279.6992  80.2918 14.91340310 30619
LEMUR-2-FURIAUS         
1 42840U 17042R   18035.72008831  .00000177  00000-0  23071-4 0  9990
2 42840  97.6074 303.1710 0011687 280.1522  79.8378 14.91466685 30602
LEMUR-2-PETERG          
1 42841U 17042S   18036.17159333  .00000439  00000-0  49104-4 0  9991
2 42841  97.6075 303.6499 0011322 276.9057  83.0874 14.91602339 30689
LEMUR-2-DEMBITZ         
1 42842U 17042T   18035.69905465  .00000483  00000-0  53436-4 0  9995
2 42842  97.6074 303.1968 0011372 279.2194  80.7739 14.91621971 30618
LEMUR-2-ZACHARY         
1 42845U 17042W   18036.27427993  .00000573  00000-0  62070-4 0  9992
2 42845  97.6025 303.6823 0011720 282.1915  77.7992 14.91819138 30692
FLOCK 2K-03             
1 42850U 17042AB  18035.95132084  .00002031  00000-0  60906-4 0  9993
2 42850  96.9923 299.1861 0009462 227.3642 132.6806 15.35534107 31332
FLOCK 2K-04             
1 42851U 17042AC  18036.54094045  .00002138  00000-0  63976-4 0  9992
2 42851  96.9924 299.7460 0009257 227.2860 132.7606 15.35544809 31427
FLOCK 2K-01             
1 42852U 17042AD  18036.47425001  .00001841  00000-0  55379-4 0  9993
2 42852  96.9920 299.6792 0009119 225.6147 134.4351 15.35538197 31416
FLOCK 2K-02             
1 42853U 17042AE  18035.69324819  .00001415  00000-0  45886-4 0  9991
2 42853  96.9938 298.6684 0010257 230.6931 129.3404 15.33491369 31270
FLOCK 2K-47             
1 42854U 17042AF  18035.94951248  .00004551  00000-0  13373-3 0  9991
2 42854  96.9919 299.1864 0008957 224.9276 135.1244 15.35553456 31330
FLOCK 2K-48             
1 42855U 17042AG  18035.68761542  .00002943  00000-0  87295-4 0  9997
2 42855  96.9928 298.9471 0008935 227.1825 132.8670 15.35534976 31291
FLOCK 2K-45             
1 42856U 17042AH  18035.68573284  .00003962  00000-0  11675-3 0  9992
2 42856  96.9921 298.9442 0009012 225.2317 134.8195 15.35539558 31290
FLOCK 2K-24             
1 42857U 17042AJ  18035.69434232  .00001202  00000-0  37401-4 0  9994
2 42857  96.9928 298.9350 0009337 222.7705 137.2814 15.35109611 31297
FLOCK 2K-46             
1 42858U 17042AK  18036.53146455  .00005780  00000-0  16927-3 0  9990
2 42858  96.9925 299.7623 0009129 221.8929 138.1618 15.35547472 31422
FLOCK 2K-23             
1 42859U 17042AL  18036.46452839  .00005988  00000-0  17527-3 0  9996
2 42859  96.9923 299.6988 0009135 223.4284 136.6242 15.35549538 31413
FLOCK 2K-21             
1 42860U 17042AM  18036.13716435  .00002155  00000-0  64463-4 0  9992
2 42860  96.9925 299.3899 0009155 224.6142 135.4367 15.35543400 31364
FLOCK 2K-22             
1 42861U 17042AN  18035.95654363  .00001918  00000-0  57594-4 0  9996
2 42861  96.9930 299.1940 0009176 223.8903 136.1613 15.35544729 31339
FLOCK 2K-07             
1 42862U 17042AP  18036.46119150  .00005876  00000-0  17201-3 0  9991
2 42862  96.9927 299.7067 0009396 223.8689 136.1811 15.35550503 31424
FLOCK 2K-08             
1 42863U 17042AQ  18036.45818297  .00004395  00000-0  12918-3 0  9994
2 42863  96.9922 299.7016 0009390 224.6435 135.4054 15.35561866 31410
FLOCK 2K-05             
1 42864U 17042AR  18035.67774145  .00005972  00000-0  17476-3 0  9997
2 42864  96.9927 298.9658 0009324 226.3572 133.6900 15.35554809 31292
FLOCK 2K-40             
1 42865U 17042AS  18035.67454172  .00003557  00000-0  10502-3 0  9993
2 42865  96.9928 298.9703 0009350 227.8042 132.2409 15.35540974 31299
FLOCK 2K-39             
1 42866U 17042AT  18036.19409394  .00006489  00000-0  18964-3 0  9995
2 42866  96.9922 299.4609 0009486 224.3130 135.7356 15.35564900 31378
FLOCK 2K-37             
1 42867U 17042AU  18036.19249452  .00006630  00000-0  19371-3 0  9994
2 42867  96.9924 299.4664 0009529 224.4293 135.6188 15.35563128 31374
FLOCK 2K-38             
1 42868U 17042AV  18036.18926502  .00006477  00000-0  18933-3 0  9994
2 42868  96.9922 299.4685 0009522 223.1174 136.9325 15.35559573 31379
FLOCK 2K-31             
1 42869U 17042AW  18035.73164541  .00006276  00000-0  18344-3 0  9995
2 42869  96.9922 299.0338 0009582 222.7479 137.3021 15.35571207 31309
FLOCK 2K-32             
1 42870U 17042AX  18036.44663616  .00006778  00000-0  19796-3 0  9992
2 42870  96.9920 299.7163 0009614 220.5916 139.4612 15.35567687 31418
FLOCK 2K-29             
1 42871U 17042AY  18035.66313792  .00005834  00000-0  17077-3 0  9995
2 42871  96.9924 298.9805 0009694 223.2756 136.7728 15.35557025 31296
FLOCK 2K-30             
1 42872U 17042AZ  18036.44343751  .00006416  00000-0  18756-3 0  9993
2 42872  96.9922 299.7220 0009743 221.1169 138.9342 15.35558108 31407
FLOCK 2K-44             
1 42873U 17042BA  18036.44179130  .00006568  00000-0  19182-3 0  9994
2 42873  96.9923 299.7275 0010903 209.3810 150.6822 15.35566243 31414
FLOCK 2K-43             
1 42874U 17042BB  18035.94584024  .00001451  00000-0  46134-4 0  9995
2 42874  96.9934 299.0615 0011517 214.9375 145.1114 15.34074844 31321
FLOCK 2K-41             
1 42875U 17042BC  18035.71438310  .00001869  00000-0  55718-4 0  9998
2 42875  96.9926 299.0572 0010974 214.6753 145.3777 15.35801782 31303
FLOCK 2K-36             
1 42876U 17042BD  18035.66505402  .00001217  00000-0  37791-4 0  9998
2 42876  96.9934 298.9843 0011393 216.1404 143.9072 15.35130164 31297
FLOCK 2K-35             
1 42877U 17042BE  18035.72237818  .00005881  00000-0  17220-3 0  9994
2 42877  96.9927 299.0522 0011081 213.9694 146.0842 15.35529840 31300
FLOCK 2K-34             
1 42878U 17042BF  18035.72120334  .00005569  00000-0  16306-3 0  9996
2 42878  96.9926 299.0492 0011095 215.6783 144.3721 15.35548082 31305
FLOCK 2K-33             
1 42879U 17042BG  18035.71828792  .00003634  00000-0  10734-3 0  9999
2 42879  96.9926 299.0528 0011292 215.1247 144.9254 15.35499942 31302
